#dP2024  1 21 12  0  0.00000000      96 __u+U IGS20 EXT  IAC
## 2298  43200.00000000   900.00000000 60330 0.5000000000000
+  118   C06C07C08C09C10C11C12C13C14C16C19C20C21C22C23C24C25
+        C26C27C28C29C30C32C33C34C35C36C37C38C39C40C41C42C43
+        C44C45C46E02E03E04E05E07E08E09E10E11E12E13E14E15E18
+        E19E21E24E25E26E27E30E31E33E34E36G01G02G03G04G05G06
+        G07G08G09G10G11G12G13G14G15G16G17G18G19G20G21G22G23
+        G24G25G26G28G29G30G31G32J02J04R01R02R03R04R05R07R08
+        R09R11R12R13R14R15R16R17R18R19R20R21R22R24R25R26  0
++        10  8 10  9  8  8  9  8  8 10  8  8  8  8  7  8  8
++         8  7  7 10  9  8  8  7  7  9  8  9  9 10  8  9  8
++         8  7  7  8  7  8  8  7  7  8  8  7  7  7  8  7  8
++         7  7  7  7  7  8  8  7  7  7  8  7  7  8  7  8  7
++         8  8  7  7  7  8  7  7  7  8  8  6  8  7  7  8  7
++         7  7  8  7  7  8  7  8 10  9  9  9  7  9  9  7  9
++         8  8  7  8  7  8 10  9  8  8  8  7  7  8  8 10  0
%c M  cc GPS ccc cccc cccc cccc cccc ccccc ccccc ccccc ccccc
%c cc cc ccc ccc cccc cccc cccc cccc ccccc ccccc ccccc ccccc
%f  0.0000000  0.000000000  0.00000000000  0.000000000000000
%f  0.0000000  0.000000000  0.00000000000  0.000000000000000
%i    0    0    0    0      0      0      0      0         0
%i    0    0    0    0      0      0      0      0         0
/* IAC                                ULTRA-RAPID PREDICTION
/* S/V CLOCKS ARE ALIGNED TO GNSS TIME                      
/* G:C1WC2W R:C1PC2P E:C1XC5X C:C2IC6I J:C1CC2S             
/* PCV:IGS20_2290 OL/AL:FES2004  NONE     YN ORB:CoN CLK:CoN
*  2024 01 22  8 45  0.00000000
PC06 -10407.698707  40242.107919  -6035.969871     62.924536
PC07  -3883.581584  28596.377234  30861.742511   -677.440279
PC08 -18674.737011  25268.165932 -28221.763845     95.019985
PC09  -4637.610593  41337.454865   4758.384270   -386.075587
PC10   3598.374320  30865.345769  29021.798560    116.198589
PC11    224.191113  27369.662624   5535.590699    370.823391
PC12 -11099.245479  15846.044421  20154.011919    789.635162
PC13 -10166.506759  25939.540949 -31579.498477    410.008597
PC14   1875.878980  16726.270095 -22254.125823     20.706522
PC16 -10486.053801  40052.844993  -6641.457848   -295.473780
PC19 -12194.020002 -17388.770613  18116.982132   -934.949611
PC20   7039.270437 -14033.503173  23083.913258    -88.942287
PC21 -23775.393755   1805.831697 -14466.632831   -963.754150
PC22 -25542.735136 -10952.862663   2386.841695   -138.410707
PC23  16854.318654   6017.982461  21403.540221   -787.719593
PC24 -16663.456626  21132.941057   7412.879965    812.939271
PC25   1145.906882  18817.815868  20565.720300    307.749555
PC26 -23504.762326  11836.860674  -9357.958316   -238.238420
PC27  14887.629172  -6776.253389 -22626.946804    260.272262
PC28  15857.261134  12324.423757 -19366.662654    197.584917
PC29  -7838.790279 -26612.618906   3035.604417    231.494926
PC30   5475.925314 -23223.821699 -14496.321755    -17.274635
PC32  23832.712919  -1946.469976  14411.566133   -556.852077
PC33  12243.433372  17328.057792 -18129.395732   -944.165117
PC34  -4497.686045  24103.713482  13292.932475    352.568609
PC35 -16371.015742 -11800.392744  19281.108300    451.553855
PC36   -128.829586 -19108.589827 -20320.863263    -43.320413
PC37  23740.354201 -10880.470105   9799.335953   -932.552493
PC38 -24847.710106  26828.883476 -21048.547359    132.021644
PC39 -12816.104403  37319.067626 -14475.915181     -6.756378
PC40  -7937.300135  22939.105163  34501.642142    -53.141579
PC41  25343.553228  11258.797979  -3104.579926   -881.884458
PC42  -8702.668291  13364.780360 -22853.394348   -462.721206
PC43   7253.517740  26847.508999  -2155.498734     57.395111
PC44 -14816.652680   7120.724023  22535.617389    361.302348
PC45 -17024.598586  -5665.627919 -21390.625352    -64.878147
PC46  15967.695819 -21268.310936  -8394.956531   -117.625036
PE02  19198.396273 -14287.791144 -17417.003311     97.085089
PE03   7883.048701 -16535.884834  23244.525155    -88.667488
PE04   9376.907972  25663.186836 -11377.966166   -309.398738
PE05  20321.500601   2089.676528  21421.545373   4712.699420
PE07 -20846.341073 -19922.634574  -6669.686336    -99.704568
PE08  -8902.341343 -25548.825328  11997.809626   -211.861603
PE09  20793.646540  20019.781968   6581.265391   -308.436530
PE10   4788.839752  21426.635117 -19851.553635   -596.046404
PE11  11889.620689  12104.245753 -24253.930113   3276.436579
PE12  -2218.674537  26518.339429 -12935.971444   -873.449138
PE13 -11412.866146 -12792.627992  24142.199023    -19.971978
PE14 -16776.965280   1292.451939  17276.974719     17.568424
PE15   2622.365674 -26711.753560  12505.488316    -81.541652
PE18  23897.259048   4377.424349 -20761.420272    239.109564
PE19  -9713.199221  14549.365162 -23871.213231   -764.426160
PE21 -29300.226656   4123.003097    962.897364   -575.130184
PE24  22374.328765   9277.473022  16974.417155   -555.745309
PE25  29333.754936  -3874.185691   -598.930123     -0.175218
PE26 -18755.683896   8998.283998  21068.133043    346.474579
PE27 -22741.724616  -8936.950535 -16723.624452   -255.526312
PE30  -2521.521006 -16688.007220 -24334.576041   -844.587841
PE31   2836.978869  16583.619038  24352.454455    -14.306320
PE33 -15182.631940  24472.541834   6852.228044      6.355591
PE34  14876.194751 -24802.668547  -6289.658619    -90.366202
PE36  18556.085814  -8396.930843 -21473.371782   -175.265159
PG01 -12880.005518  22567.527090   4192.387853    166.827610
PG02 -14924.108795  18161.644131  12627.962579   -497.191717
PG03 -19488.069950  11763.988169 -13731.430467    142.857293
PG04  -8785.714473  13129.070899 -21318.325229    272.393371
PG05  25711.354737  -6347.226963   2442.889071   -158.893882
PG06   9702.298660  12648.085132 -21149.862189    435.920776
PG07  -3556.060643  24760.266447   8662.034178    -43.389243
PG08 -15176.793373   5086.157303  21164.209463   -163.300070
PG09   3027.710364  21276.058344 -15654.825398     66.852695
PG10 -13995.761957 -11456.448904  19766.979115    -70.310264
PG11  15807.855134    973.918761 -21288.160460   -548.902191
PG12  20252.001328 -10754.768609 -13628.405336   -470.369721
PG13  17915.775290   5828.737526  18607.405392    618.267996
PG14   9861.472062  13810.381693  20495.342900    305.321688
PG15  14719.807124  -6888.145737  20550.086507    119.769596
PG16 -26586.676575  -1292.257224  -3541.221919   -379.040475
PG17  12037.536987  23240.764215   4440.614323    719.286828
PG18   3566.154409 -24439.583151   9534.458829   -538.011049
PG19  16805.729769  20100.521030  -5588.416908    429.982373
PG20  24087.971236    564.830708 -10925.347546    390.431807
PG21 -16061.379525  13380.131801  16273.296024    137.585339
PG22  16721.358784  11474.431997  17428.772202     44.037006
PG23   -148.549802 -14972.048599  21947.700169    140.302701
PG24  15083.558029 -17275.706150  12627.977347   -418.397039
PG25   9040.570819 -15593.258910 -19756.355826    486.103938
PG26 -22723.509089  -5234.127220 -13189.649172    197.969007
PG28  -8930.414445 -15421.806395 -19716.959851   -106.313670
PG29   -172.926750 -20786.055314 -16522.472996   -608.347575
PG30   4710.028033  20273.155242  16472.598364   -442.387920
PG31 -14261.530726  -5980.411551 -21803.723789   -227.447455
PG32 -15814.286905 -21460.676340   1140.110413   -606.853309
PJ02 -31266.391738  23020.969586  21493.500825     -1.354768
PJ04 -24842.937490  21886.293106 -20950.386763     77.665536
PR01  -4019.002906 -13658.777878  21165.628755     75.177879
PR02 -18352.288586 -15579.687162   8585.639439    -22.441553
PR03 -22467.290452  -8276.026163  -8840.020395     93.087565
PR04 -14011.346785   3025.070860 -21073.828676    220.192648
PR05   1808.002682  12897.254634 -21914.483365    125.709268
PR07  22254.561227   7660.838206   9808.537919     74.103870
PR08  13812.423704  -3461.031955  21215.064949    -74.146604
PR09   8345.897514   8105.397647  22718.276911    165.731261
PR11  21848.683858 -13170.979704   -474.022951     36.825232
PR12   9664.215794 -15495.997352 -17783.182634     35.875663
PR13  -5800.498960  -9429.733026 -23001.501104    -43.567161
PR14 -20519.656172   3858.862174 -14637.972193     25.958664
PR15 -21502.059457  13578.083408   1987.616581     82.856009
PR16  -9882.278273  15503.987944  17667.274990     22.641658
PR17 -10470.009333  -3527.432096  23001.727800     54.576185
PR18  -8992.178844  14041.715978  19302.991383    123.400215
PR19  -4433.634665  24058.303099   7230.584982   -262.996909
PR20   4899.663730  21078.688503 -13452.921969   -107.152756
PR21  10379.738976   3245.415214 -23068.936016    -70.893384
PR22   9453.168544 -14823.444045 -18458.261698    104.340078
PR24  -6278.383063 -20495.803307  13840.604128    -40.872337
PR25  10619.582792   3919.681375 -22850.692748     53.553275
PR26  14511.441539  -2902.865009  20803.347675   -202.261113
EOF
